COSMOS 2433 (720)       
1 32275U 07052A   26177.30077292 -.00000084  00000+0  00000+0 0  9997
2 32275  65.5713 315.6262 0002876 196.1254 163.8539  2.13104185145251
COSMOS 2432 (719)       
1 32276U 07052B   26178.97701435 -.00000078  00000+0  00000+0 0  9998
2 32276  65.5863 315.6977 0007480 328.0830 181.6997  2.13103239145315
COSMOS 2434 (721)       
1 32393U 07065A   26178.19052823  .00000101  00000+0  00000+0 0  9992
2 32393  64.3185 191.5785 0001243 326.9302 245.4349  2.13101370143984
COSMOS 2436 (723)       
1 32395U 07065C   26178.84001979  .00000096  00000+0  00000+0 0  9995
2 32395  64.3274 191.6289 0017282 353.5963 129.3057  2.13100206143954
COSMOS 2456 (730)       
1 36111U 09070A   26179.34766025 -.00000041  00000+0  00000+0 0  9990
2 36111  65.0173  70.5914 0003933 337.8031 200.4792  2.13103741128664
COSMOS 2457 (733)       
1 36112U 09070B   26178.63741042 -.00000048  00000+0  00000+0 0  9991
2 36112  65.0032  70.4590 0003232 122.1051 358.6068  2.13101175128657
COSMOS 2460 (732)       
1 36402U 10007C   26178.22930437 -.00000082  00000+0  00000+0 0  9996
2 36402  65.4142 314.1261 0002031 121.7117  47.8769  2.13101740126945
COSMOS 2476 (744)       
1 37867U 11064A   26179.36746421 -.00000040  00000+0  00000+0 0  9994
2 37867  65.2764  72.4937 0022499 238.4020 223.3998  2.13103789114006
COSMOS 2477 (745)       
1 37868U 11064B   26179.71891065 -.00000036  00000+0  00000+0 0  9994
2 37868  65.2830  72.5612 0019404 238.6898 313.0373  2.13103077114003
COSMOS 2475 (743)       
1 37869U 11064C   26179.32228542 -.00000040  00000+0  00000+0 0  9991
2 37869  65.2895  72.5964 0025220 252.3811 310.1425  2.13101901114006
COSMOS 2485 (747)       
1 39155U 13019A   26179.64150071 -.00000037  00000+0  00000+0 0  9995
2 39155  65.4259  73.2198 0022892 232.6501 127.1904  2.13103395102529
COSMOS 2492 (754)       
1 39620U 14012A   26179.60034838 -.00000074  00000+0  00000+0 0  9995
2 39620  65.2906 313.5472 0010267 322.2306  37.6876  2.13103394 95488
COSMOS 2500 (755)       
1 40001U 14032A   26178.36219912 -.00000081  00000+0  00000+0 0  9990
2 40001  65.2259 313.3360 0007751 186.3038 173.6757  2.13106005 93673
COSMOS 2501 (702K)      
1 40315U 14075A   26179.09366431  .00000093  00000+0  00000+0 0  9997
2 40315  63.6168 189.9945 0022646 212.6319 147.2733  2.13101409 90089
COSMOS 2514 (751)       
1 41330U 16008A   26180.48592553 -.00000067  00000+0  00000+0 0  9996
2 41330  65.0137 312.5846 0011738 199.3082 160.6408  2.13102772 80880
